{"type": "FeatureCollection", "features": [{"type": "Feature", "properties": {"name": "City of Johannesburg Metropolitan"}, "geometry": {"type": "MultiPolygon", "coordinates": [[[[27.98484, -25.90973], [27.987859, -25.93401], [28.029906, -25.911102], [28.03916, -25.92639], [28.04574, -25.93155], [28.07455, -25.92877], [28.07505, -25.92921], [28.07723, -25.92089], [28.08048, -25.92522], [28.09016, -25.92426], [28.09084, -25.92743], [28.10547, -25.9249], [28.11023, -25.94491], [28.18105, -25.91955], [28.16646, -25.97927], [28.194453, -25.9849], [28.19754, -25.97459], [28.2053, -25.97686], [28.211522, -25.978918], [28.21446, -25.99453], [28.179856, -26.020847], [28.18743, -26.03273], [28.18942, -26.03207], [28.18799, -26.03616], [28.17687, -26.03568], [28.178121, -26.028437], [28.173696, -26.028112], [28.172163, -26.028589], [28.174846, -26.033124], [28.175227, -26.03561], [28.16541, -26.03506], [28.158164, -26.038273], [28.16228, -26.0442], [28.16047, -26.04618], [28.162, -26.04715], [28.16568, -26.05602], [28.16999, -26.05379], [28.17177, -26.05812], [28.17138, -26.06357], [28.17805, -26.06345], [28.17941, -26.06684], [28.17561, -26.07367], [28.18196, -26.07434], [28.18434, -26.07864], [28.18092, -26.08447], [28.18483, -26.08926], [28.18342, -26.09221], [28.17693, -26.09839], [28.180481, -26.119426], [28.17566, -26.12021], [28.16879, -26.10556], [28.16606, -26.10724], [28.1639, -26.12212], [28.14076, -26.12588], [28.14132, -26.12435], [28.14016, -26.12337], [28.13843, -26.11803], [28.135417, -26.12189], [28.1376, -26.12639], [28.13605, -26.12641], [28.13378, -26.13269], [28.13208, -26.14364], [28.13205, -26.14696], [28.1329, -26.14925], [28.13421, -26.149471], [28.124546, -26.149133], [28.11767, -26.16004], [28.1142, -26.1619], [28.11851, -26.16686], [28.11274, -26.16778], [28.115365, -26.178525], [28.113715, -26.181997], [28.116058, -26.181354], [28.12658, -26.22433], [28.12703, -26.22439], [28.12711, -26.22718], [28.12762, -26.22716], [28.12641, -26.22986], [28.12421, -26.23162], [28.1249, -26.23171], [28.12472, -26.23404], [28.12332, -26.23556], [28.12238, -26.23923], [28.12462, -26.23946], [28.122852, -26.247929], [28.09525, -26.25549], [28.095324, -26.257581], [28.07719, -26.25993], [28.07097, -26.26392], [28.07139, -26.2673], [28.06561, -26.26823], [28.06669, -26.27205], [28.07056, -26.27262], [28.07807, -26.30381], [28.094772, -26.304724], [28.09462, -26.30692], [28.09053, -26.3067], [28.09107, -26.31356], [28.08026, -26.32091], [28.08178, -26.33283], [28.08145, -26.3343], [28.06655, -26.33708], [28.06727, -26.33935], [28.06707, -26.342], [28.051068, -26.34908], [28.05034, -26.35597], [28.04783, -26.35958], [28.04193, -26.34751], [28.04314, -26.34718], [28.03961, -26.34244], [28.02954, -26.34162], [28.02123, -26.34203], [28.01841, -26.34167], [28.011389, -26.339163], [28.00901, -26.35058], [27.96998, -26.3417], [27.97034, -26.33711], [27.95887, -26.33597], [27.95686, -26.33516], [27.95339, -26.3532], [27.927255, -26.35628], [27.91223, -26.35895], [27.90584, -26.36388], [27.89748, -26.37557], [27.89546, -26.38177], [27.89526, -26.39165], [27.893846, -26.397467], [27.89436, -26.39919], [27.89316, -26.40431], [27.93555, -26.39982], [27.93338, -26.424185], [27.92227, -26.42898], [27.91751, -26.45858], [27.91221, -26.45849], [27.91484, -26.44097], [27.87915, -26.44675], [27.87864, -26.44088], [27.88012, -26.43965], [27.88012, -26.43867], [27.87733, -26.43919], [27.869075, -26.444801], [27.87073, -26.47561], [27.87205, -26.47818], [27.87536, -26.48089], [27.88079, -26.48716], [27.88202, -26.48949], [27.88612, -26.50444], [27.88578, -26.50519], [27.88655, -26.50544], [27.88601, -26.51086], [27.88737, -26.52629], [27.88671, -26.52236], [27.8802, -26.52226], [27.87563, -26.5205], [27.86614, -26.51251], [27.864548, -26.509998], [27.86043, -26.50626], [27.85985, -26.50647], [27.85292, -26.50029], [27.83507, -26.49045], [27.82773, -26.50443], [27.824468, -26.479878], [27.82169, -26.48488], [27.77955, -26.47922], [27.77886, -26.48501], [27.75971, -26.48387], [27.75924, -26.44466], [27.76894, -26.44565], [27.769156, -26.449021], [27.776014, -26.449019], [27.776004, -26.452221], [27.78028, -26.45258], [27.7834, -26.4467], [27.78594, -26.44762], [27.79455, -26.42888], [27.79163, -26.42019], [27.78618, -26.41898], [27.76129, -26.41915], [27.754736, -26.38411], [27.751864, -26.361995], [27.81159, -26.364475], [27.81045, -26.33289], [27.82447, -26.33748], [27.82181, -26.30407], [27.81529, -26.30339], [27.81515, -26.28692], [27.81484, -26.285], [27.81421, -26.28473], [27.81368, -26.28565], [27.7923, -26.28747], [27.78972, -26.30391], [27.7828, -26.30435], [27.77651, -26.28533], [27.7438, -26.28722], [27.74465, -26.27949], [27.75348, -26.25804], [27.72915, -26.24629], [27.72853, -26.24249], [27.72495, -26.2387], [27.71427, -26.21387], [27.7157, -26.2143], [27.71851, -26.21389], [27.71958, -26.21067], [27.72029, -26.20386], [27.71776, -26.202857], [27.71827, -26.19893], [27.77199, -26.21321], [27.78614, -26.18195], [27.8106, -26.18208], [27.80906, -26.17506], [27.81352, -26.17606], [27.818047, -26.17596], [27.81955, -26.17437], [27.81974, -26.17299], [27.81815, -26.16993], [27.812245, -26.16695], [27.81304, -26.16656], [27.835744, -26.126031], [27.83738, -26.12449], [27.83881, -26.12022], [27.83786, -26.11991], [27.839, -26.11685], [27.83217, -26.11456], [27.83189, -26.11365], [27.83262, -26.11137], [27.83184, -26.10993], [27.83206, -26.10856], [27.83519, -26.10682], [27.83794, -26.10765], [27.839645, -26.10687], [27.84011, -26.10169], [27.83901, -26.09909], [27.83985, -26.09726], [27.83842, -26.09547], [27.83926, -26.09433], [27.83911, -26.09222], [27.839665, -26.092025], [27.83531, -26.08463], [27.84415, -26.08326], [27.84476, -26.08254], [27.84503, -26.07842], [27.84332, -26.07312], [27.84225, -26.0723], [27.842595, -26.071845], [27.86437, -26.07554], [27.86651, -26.07511], [27.84964, -26.06238], [27.85157, -26.05979], [27.864645, -26.056575], [27.870089, -26.07011], [27.875233, -26.067492], [27.877471, -26.071156], [27.89627, -26.06185], [27.90437, -26.03111], [27.91264, -26.02821], [27.92353, -25.99831], [27.9256, -25.97861], [27.92271, -25.9707], [27.91883, -25.97126], [27.90736, -25.97009], [27.91058, -25.96764], [27.89759, -25.95436], [27.90945, -25.94413], [27.90822, -25.94252], [27.90518, -25.93308], [27.90976, -25.9303], [27.90997, -25.92956], [27.90768, -25.92873], [27.90839, -25.92693], [27.93234, -25.92594], [27.94085, -25.92838], [27.93201, -25.91631], [27.939755, -25.915165], [27.94164, -25.91609], [27.94667, -25.91494], [27.94736, -25.91411], [27.94668, -25.90804], [27.94734, -25.90725], [27.94927, -25.90794], [27.95016, -25.90617], [27.96234, -25.90724], [27.9629, -25.91049], [27.96686, -25.91092], [27.98398, -25.90283], [27.98484, -25.90973]]]]}}, {"type": "Feature", "properties": {"name": "City of Tshwane Metropolitan"}, "geometry": {"type": "MultiPolygon", "coordinates": [[[[28.75833, -25.14728], [28.75916, -25.14972], [28.75742, -25.14986], [28.7765, -25.18372], [28.77541, -25.18377], [28.78456, -25.22866], [28.7791, -25.23082], [28.76385, -25.22109], [28.73243, -25.26917], [28.73959, -25.28853], [28.73294, -25.2827], [28.69563, -25.29446], [28.67921, -25.303], [28.6689, -25.31076], [28.64126, -25.32764], [28.63318, -25.33149], [28.62258, -25.33365], [28.63894, -25.39398], [28.61979, -25.41139], [28.62526, -25.44763], [28.62947, -25.45937], [28.62853, -25.46025], [28.62085, -25.46322], [28.6154, -25.46786], [28.62099, -25.47066], [28.63206, -25.48841], [28.634, -25.51989], [28.62575, -25.52305], [28.62667, -25.53115], [28.635, -25.55916], [28.64545, -25.58578], [28.647255, -25.58563], [28.642512, -25.589865], [28.66126, -25.63128], [28.674695, -25.65885], [28.672702, -25.665032], [28.68378, -25.67538], [28.7088, -25.68282], [28.72206, -25.64418], [28.72387, -25.63177], [28.73818, -25.63387], [28.76631, -25.64698], [28.759, -25.67802], [28.75285, -25.693911], [28.75743, -25.69533], [28.75722, -25.70588], [28.76494, -25.7036], [28.7653, -25.70064], [28.76809, -25.70092], [28.76926, -25.69878], [28.77932, -25.70194], [28.79273, -25.70243], [28.80824, -25.68903], [28.8193, -25.69509], [28.84038, -25.68601], [28.84695, -25.68242], [28.82292, -25.65892], [28.81003, -25.65912], [28.8115, -25.64303], [28.83601, -25.63737], [28.83546, -25.64561], [28.84157, -25.65446], [28.8457, -25.65231], [28.8693, -25.65812], [28.87195, -25.64163], [28.8629, -25.63555], [28.85838, -25.63481], [28.84311, -25.56644], [28.80854, -25.57325], [28.797054, -25.542045], [28.82186, -25.52244], [28.85178, -25.50181], [28.85664, -25.50719], [28.86988, -25.52475], [28.87408, -25.52706], [28.858224, -25.569065], [28.91009, -25.52446], [28.91516, -25.558], [28.94654, -25.5998], [29.00776, -25.57416], [28.99635, -25.55648], [28.986931, -25.540199], [28.98815, -25.53953], [28.99324, -25.54252], [29.00672, -25.5376], [29.01058, -25.5332], [29.01902, -25.52779], [29.01294, -25.51373], [29.01373, -25.51318], [29.02299, -25.51591], [29.0268, -25.51849], [29.03227, -25.52072], [29.03596, -25.52126], [29.04221, -25.52098], [29.04742, -25.51695], [29.04862, -25.51885], [29.04819, -25.52022], [29.05265, -25.52292], [29.05643, -25.52632], [29.05749, -25.5263], [29.05874, -25.52723], [29.07873, -25.49959], [29.07736, -25.49623], [29.08001, -25.49463], [29.09137, -25.53059], [29.09842, -25.53773], [29.08689, -25.54862], [29.06841, -25.55228], [29.03429, -25.56339], [29.042, -25.57326], [29.04562, -25.5808], [29.04, -25.61755], [29.0642, -25.62066], [29.06614, -25.63048], [29.05655, -25.6326], [29.06462, -25.64242], [28.96883, -25.67331], [28.950673, -25.728273], [28.98131, -25.74254], [28.957587, -25.774646], [28.93817, -25.823285], [28.94334, -25.82437], [28.950449, -25.837353], [28.93818, -25.88864], [28.8868, -25.87143], [28.88389, -25.87835], [28.88896, -25.88033], [28.87951, -25.925241], [28.88254, -25.96978], [28.88329, -25.97141], [28.88524, -25.97137], [28.88505, -25.9744], [28.86735, -26.00705], [28.86484, -26.00127], [28.83293, -26.00481], [28.82236, -26.00393], [28.79386, -26.00457], [28.77386, -26.01366], [28.76241, -25.98306], [28.75788, -25.98374], [28.75754, -25.99058], [28.71084, -25.99059], [28.65266, -25.97425], [28.63226, -25.97078], [28.59095, -26.00248], [28.586749, -26.016025], [28.57894, -26.05959], [28.53863, -26.04781], [28.53077, -26.06157], [28.515765, -26.058525], [28.46867, -26.07809], [28.44047, -26.04766], [28.44223, -26.0422], [28.44913, -26.0427], [28.45344, -26.03551], [28.45468, -26.03079], [28.45538, -26.03117], [28.46007, -26.023665], [28.46434, -26.02557], [28.46439, -26.011423], [28.445667, -26.018106], [28.448239, -25.999918], [28.45107, -25.99548], [28.44442, -25.99115], [28.45174, -25.98637], [28.45436, -25.98263], [28.46269, -25.97444], [28.468014, -25.963269], [28.45697, -25.95667], [28.44602, -25.96486], [28.41978, -25.95109], [28.41775, -25.95051], [28.41667, -25.94836], [28.41947, -25.94865], [28.41761, -25.93935], [28.40719, -25.92409], [28.35238, -25.9546], [28.338132, -25.949953], [28.319479, -25.91372], [28.26943, -25.91577], [28.271211, -25.925027], [28.24348, -25.923193], [28.23844, -25.92274], [28.184988, -25.903407], [28.18105, -25.91955], [28.11023, -25.94491], [28.10547, -25.9249], [28.09084, -25.92743], [28.09016, -25.92426], [28.08048, -25.92522], [28.07723, -25.92089], [28.07505, -25.92921], [28.07455, -25.92877], [28.04574, -25.93155], [28.03916, -25.92639], [28.029906, -25.911102], [27.987859, -25.93401], [27.98398, -25.90283], [27.96686, -25.91092], [27.9629, -25.91049], [27.96234, -25.90724], [27.95016, -25.90617], [27.94927, -25.90794], [27.94734, -25.90725], [27.94668, -25.90804], [27.94736, -25.91411], [27.94667, -25.91494], [27.94164, -25.91609], [27.939755, -25.915165], [27.92248, -25.91756], [27.90115, -25.90793], [27.90098, -25.90526], [27.893798, -25.905681], [27.89035, -25.88395], [27.89947, -25.88278], [27.8982, -25.85974], [27.90054, -25.84083], [27.93953, -25.83678], [27.92583, -25.82411], [27.94013, -25.81967], [27.96017, -25.81599], [27.9572, -25.80053], [27.96365, -25.79912], [27.96225, -25.79186], [27.96319, -25.78709], [27.95958, -25.78605], [27.95457, -25.78694], [27.94933, -25.75975], [27.952688, -25.759572], [27.9558, -25.75659], [27.96457, -25.75765], [27.97315, -25.75681], [27.97947, -25.75145], [27.94819, -25.69521], [27.95749, -25.69369], [27.95382, -25.67294], [27.95186, -25.6713], [27.95278, -25.66694], [27.95188, -25.66424], [27.95313, -25.6557], [27.95229, -25.65351], [27.95408, -25.6502], [27.95725, -25.64766], [27.95708, -25.64366], [27.95895, -25.64345], [27.96221, -25.64516], [27.96517, -25.645415], [27.96563, -25.64174], [27.96486, -25.63484], [27.98056, -25.6328], [27.97216, -25.59791], [27.95763, -25.59262], [27.96456, -25.58025], [27.98146, -25.54275], [28.03065, -25.55836], [28.04951, -25.55956], [28.0524, -25.5358], [28.024422, -25.5307], [27.99244, -25.51803], [28.00751, -25.48409], [28.01193, -25.48046], [28.03595, -25.47059], [27.991657, -25.424517], [27.96972, -25.43911], [27.96041, -25.42731], [27.95817, -25.42635], [27.94564, -25.4067], [27.97076, -25.36295], [28.00041, -25.35942], [28.04473, -25.40174], [28.05553, -25.40005], [28.08338, -25.38485], [28.083028, -25.384516], [28.10802, -25.367007], [28.11073, -25.3789], [28.17667, -25.36587], [28.17675, -25.32859], [28.20148, -25.32371], [28.22833, -25.35419], [28.282642, -25.342644], [28.2834, -25.33808], [28.289505, -25.338291], [28.289627, -25.341152], [28.29806, -25.33934], [28.29816, -25.31037], [28.379161, -25.292056], [28.3826, -25.32115], [28.4337, -25.32243], [28.43929, -25.31018], [28.50359, -25.30884], [28.50086, -25.26761], [28.50116, -25.26545], [28.51328, -25.25615], [28.56434, -25.25215], [28.56373, -25.24936], [28.59481, -25.24943], [28.60292, -25.25421], [28.60469, -25.25354], [28.603985, -25.25248], [28.6044, -25.25209], [28.63132, -25.28024], [28.63263, -25.27997], [28.65931, -25.23478], [28.66434, -25.25179], [28.67122, -25.24773], [28.66997, -25.24579], [28.66992, -25.24261], [28.66913, -25.24138], [28.67064, -25.24066], [28.6714, -25.23908], [28.67289, -25.23852], [28.67344, -25.23644], [28.67567, -25.23468], [28.67563, -25.22702], [28.67732, -25.22613], [28.67837, -25.22262], [28.67994, -25.22025], [28.6789, -25.21811], [28.67681, -25.21705], [28.67906, -25.21196], [28.67855, -25.21076], [28.65533, -25.21353], [28.63811, -25.18658], [28.63811, -25.18389], [28.61587, -25.15163], [28.66831, -25.138525], [28.71011, -25.11606], [28.744589, -25.109612], [28.75833, -25.14728]]]]}}, {"type": "Feature", "properties": {"name": "City of Ekurhuleni Metropolitan"}, "geometry": {"type": "MultiPolygon", "coordinates": [[[[28.256584, -25.924059], [28.271211, -25.925027], [28.26943, -25.91577], [28.319479, -25.91372], [28.338132, -25.949953], [28.35238, -25.9546], [28.40719, -25.92409], [28.41761, -25.93935], [28.41947, -25.94865], [28.41667, -25.94836], [28.41775, -25.95051], [28.41978, -25.95109], [28.44602, -25.96486], [28.45697, -25.95667], [28.468014, -25.963269], [28.46269, -25.97444], [28.45436, -25.98263], [28.45174, -25.98637], [28.44442, -25.99115], [28.45107, -25.99548], [28.448239, -25.999918], [28.445667, -26.018106], [28.46439, -26.011423], [28.46434, -26.02557], [28.46007, -26.023665], [28.45538, -26.03117], [28.45468, -26.03079], [28.45344, -26.03551], [28.44913, -26.0427], [28.44223, -26.0422], [28.44047, -26.04766], [28.46867, -26.07809], [28.503055, -26.0638], [28.51582, -26.08125], [28.50119, -26.08957], [28.50518, -26.09922], [28.49695, -26.10387], [28.4905, -26.126392], [28.52134, -26.14449], [28.52715, -26.17874], [28.51363, -26.22143], [28.51817, -26.274233], [28.519596, -26.325139], [28.52279, -26.32622], [28.52248, -26.32856], [28.52497, -26.33235], [28.51902, -26.33898], [28.51425, -26.34655], [28.516665, -26.35389], [28.51522, -26.35699], [28.51736, -26.35809], [28.51788, -26.36196], [28.51538, -26.36404], [28.50874, -26.38017], [28.50775, -26.38052], [28.50945, -26.38392], [28.51428, -26.4324], [28.51618, -26.43574], [28.51726, -26.43578], [28.5195, -26.43822], [28.5196, -26.43752], [28.52086, -26.43905], [28.52332, -26.44041], [28.525733, -26.4408], [28.52213, -26.44266], [28.52428, -26.44466], [28.51635, -26.44791], [28.51723, -26.45311], [28.518191, -26.452852], [28.523141, -26.46558], [28.50077, -26.46437], [28.50026, -26.45683], [28.49724, -26.45662], [28.49703, -26.45298], [28.50002, -26.45321], [28.49908, -26.4393], [28.47142, -26.43986], [28.46362, -26.43814], [28.4634, -26.44304], [28.457665, -26.437645], [28.45748, -26.439185], [28.45581, -26.438595], [28.45313, -26.43948], [28.45152, -26.44125], [28.41472, -26.42281], [28.40707, -26.43041], [28.380829, -26.447204], [28.37559, -26.43952], [28.37178, -26.43544], [28.40666, -26.40883], [28.39982, -26.40219], [28.40174, -26.40053], [28.39408, -26.39771], [28.38684, -26.40392], [28.38132, -26.39431], [28.38505, -26.39002], [28.38272, -26.38569], [28.37366, -26.3945], [28.370295, -26.393631], [28.35493, -26.40696], [28.30905, -26.36793], [28.29361, -26.38431], [28.28633, -26.36742], [28.27401, -26.35868], [28.262147, -26.363525], [28.25973, -26.3672], [28.24857, -26.37055], [28.25095, -26.37277], [28.24418, -26.37657], [28.26461, -26.40881], [28.2711, -26.4137], [28.26375, -26.43504], [28.24378, -26.43435], [28.22345, -26.4324], [28.2204, -26.43628], [28.22046, -26.43563], [28.21705, -26.43342], [28.21518, -26.43578], [28.20874, -26.43402], [28.19285, -26.4475], [28.18769, -26.45312], [28.17812, -26.44375], [28.19597, -26.42922], [28.18684, -26.43033], [28.18106, -26.42918], [28.18294, -26.4284], [28.18431, -26.42509], [28.183014, -26.419235], [28.16029, -26.43803], [28.14723, -26.42393], [28.13473, -26.42291], [28.13723, -26.42552], [28.12567, -26.43067], [28.117909, -26.41907], [28.10156, -26.42022], [28.094341, -26.41745], [28.0898, -26.41792], [28.08594, -26.41695], [28.07718, -26.4173], [28.077455, -26.415541], [28.07606, -26.41537], [28.07775, -26.40914], [28.08464, -26.39293], [28.08626, -26.39063], [28.08883, -26.38185], [28.097516, -26.36031], [28.08733, -26.34499], [28.08721, -26.34398], [28.08115, -26.33571], [28.0671, -26.34198], [28.06727, -26.33935], [28.06655, -26.33708], [28.08145, -26.3343], [28.08178, -26.33283], [28.08026, -26.32091], [28.09107, -26.31356], [28.09053, -26.3067], [28.09462, -26.30692], [28.094772, -26.304724], [28.07807, -26.30381], [28.07056, -26.27262], [28.06669, -26.27205], [28.06561, -26.26823], [28.07139, -26.2673], [28.07097, -26.26392], [28.07719, -26.25993], [28.095324, -26.257581], [28.09525, -26.25549], [28.122852, -26.247929], [28.12462, -26.23946], [28.12238, -26.23923], [28.12332, -26.23556], [28.12472, -26.23404], [28.1249, -26.23171], [28.12421, -26.23162], [28.12641, -26.22986], [28.12762, -26.22716], [28.12711, -26.22718], [28.12703, -26.22439], [28.12658, -26.22433], [28.116058, -26.181354], [28.113715, -26.181997], [28.115365, -26.178525], [28.11274, -26.16778], [28.11851, -26.16686], [28.1142, -26.1619], [28.11767, -26.16004], [28.124546, -26.149133], [28.13421, -26.149471], [28.1329, -26.14925], [28.13205, -26.14696], [28.13208, -26.14364], [28.13378, -26.13269], [28.13605, -26.12641], [28.1376, -26.12639], [28.135417, -26.12189], [28.13843, -26.11803], [28.14016, -26.12337], [28.14132, -26.12435], [28.14076, -26.12588], [28.1639, -26.12212], [28.16606, -26.10724], [28.16879, -26.10556], [28.17566, -26.12021], [28.180481, -26.119426], [28.17693, -26.09839], [28.18342, -26.09221], [28.18483, -26.08926], [28.18092, -26.08447], [28.18434, -26.07864], [28.18196, -26.07434], [28.17561, -26.07367], [28.17941, -26.06684], [28.17805, -26.06345], [28.17138, -26.06357], [28.17177, -26.05812], [28.16999, -26.05379], [28.16568, -26.05602], [28.162, -26.04715], [28.16047, -26.04618], [28.16228, -26.0442], [28.158164, -26.038273], [28.16541, -26.03506], [28.175227, -26.03561], [28.174846, -26.033124], [28.172163, -26.028589], [28.173696, -26.028112], [28.178121, -26.028437], [28.17687, -26.03568], [28.18799, -26.03616], [28.18942, -26.03207], [28.18743, -26.03273], [28.179856, -26.020847], [28.21446, -25.99453], [28.211522, -25.978918], [28.2053, -25.97686], [28.19754, -25.97459], [28.194453, -25.9849], [28.16646, -25.97927], [28.184988, -25.903407], [28.23844, -25.92274], [28.256584, -25.924059]]]]}}, {"type": "Feature", "properties": {"name": "Emfuleni Local"}, "geometry": {"type": "MultiPolygon", "coordinates": [[[[27.75142, -26.41916], [27.78618, -26.41898], [27.79163, -26.42019], [27.79455, -26.42888], [27.78594, -26.44762], [27.7834, -26.4467], [27.78028, -26.45258], [27.776004, -26.452221], [27.776014, -26.449019], [27.769156, -26.449021], [27.76894, -26.44565], [27.75924, -26.44466], [27.75971, -26.48387], [27.77886, -26.48501], [27.77955, -26.47922], [27.82169, -26.48488], [27.824468, -26.479878], [27.82773, -26.50443], [27.83507, -26.49045], [27.85292, -26.50029], [27.85985, -26.50647], [27.86043, -26.50626], [27.864548, -26.509998], [27.86614, -26.51251], [27.87563, -26.5205], [27.8802, -26.52226], [27.88671, -26.52236], [27.88803, -26.53524], [27.88895, -26.53517], [27.89371, -26.50775], [27.90882, -26.512656], [27.9028, -26.5248], [27.96297, -26.55017], [27.980895, -26.55417], [27.98302, -26.55583], [27.95988, -26.57989], [27.94564, -26.5963], [27.96619, -26.59485], [27.96931, -26.59208], [27.98123, -26.60228], [27.98157, -26.60138], [27.98548, -26.60242], [27.98236, -26.6075], [27.94956, -26.64946], [27.95406, -26.64993], [27.95643, -26.65159], [27.95904, -26.65112], [27.95856, -26.64756], [27.961988, -26.64484], [28.000374, -26.6524], [28.005129, -26.651907], [28.013741, -26.652407], [28.01253, -26.65913], [28.02002, -26.66965], [28.02077, -26.67255], [28.01558, -26.67219], [28.00881, -26.67011], [28.00822, -26.66927], [28.00845, -26.66652], [28.00789, -26.6654], [28.00379, -26.66453], [28.00217, -26.67473], [28.02174, -26.67832], [28.02492, -26.69545], [28.01649, -26.6967], [28.01726, -26.71613], [28.00479, -26.71446], [28.00205, -26.70335], [28.00049, -26.70332], [28.00014, -26.69813], [27.99867, -26.69457], [27.98688, -26.68273], [27.98274, -26.68013], [27.97977, -26.67464], [27.97754, -26.67189], [27.97523, -26.67019], [27.96954, -26.66874], [27.96359, -26.67117], [27.95369, -26.6716], [27.94454, -26.67369], [27.94118, -26.67567], [27.93916, -26.6788], [27.93574, -26.68763], [27.93516, -26.69268], [27.92976, -26.69977], [27.9256, -26.70377], [27.92283, -26.70515], [27.91345, -26.70654], [27.90803, -26.70592], [27.90158, -26.70834], [27.89518, -26.70969], [27.89317, -26.71095], [27.8918, -26.71437], [27.8955, -26.71781], [27.89489, -26.72123], [27.89276, -26.72586], [27.88856, -26.72943], [27.88468, -26.73433], [27.88304, -26.74396], [27.88002, -26.74619], [27.87217, -26.74774], [27.86626, -26.74623], [27.85786, -26.74698], [27.84945, -26.74561], [27.84582, -26.74625], [27.83385, -26.75068], [27.83056, -26.75114], [27.82162, -26.74952], [27.80798, -26.75094], [27.8005, -26.74994], [27.78974, -26.7496], [27.7828, -26.75061], [27.7708, -26.75866], [27.76971, -26.76007], [27.76798, -26.76595], [27.76866, -26.77032], [27.76852, -26.77528], [27.7669, -26.78106], [27.76796, -26.78651], [27.77262, -26.79352], [27.77205, -26.7971], [27.76981, -26.79929], [27.76591, -26.79886], [27.75972, -26.79694], [27.75447, -26.791], [27.74887, -26.7872], [27.74747, -26.78541], [27.74659, -26.77969], [27.742, -26.7706], [27.73998, -26.76867], [27.73785, -26.76809], [27.73371, -26.76353], [27.72876, -26.76103], [27.72487, -26.76029], [27.71963, -26.76173], [27.71514, -26.76169], [27.70606, -26.76366], [27.70169, -26.76398], [27.69378, -26.76342], [27.68818, -26.76176], [27.68527, -26.76338], [27.68379, -26.76543], [27.67526, -26.77174], [27.66621, -26.77356], [27.66228, -26.77354], [27.65721, -26.77081], [27.64308, -26.76848], [27.64043, -26.76919], [27.6388, -26.77109], [27.6357, -26.77203], [27.63277, -26.77205], [27.62973, -26.76972], [27.62839, -26.76603], [27.62921, -26.76261], [27.63186, -26.75914], [27.63578, -26.75151], [27.6323, -26.74549], [27.6324, -26.74397], [27.63465, -26.7388], [27.63447, -26.73574], [27.63341, -26.7337], [27.63187, -26.73274], [27.62952, -26.73235], [27.61049, -26.7326], [27.60924, -26.73411], [27.60871, -26.73916], [27.60719, -26.74109], [27.6061, -26.74132], [27.60449, -26.74068], [27.60088, -26.74059], [27.59668, -26.7373], [27.59358, -26.73714], [27.59043, -26.73836], [27.58881, -26.7357], [27.58141, -26.731], [27.58691, -26.72729], [27.58912, -26.72409], [27.60224, -26.72285], [27.60166, -26.71486], [27.60284, -26.69244], [27.57531, -26.71569], [27.57416, -26.71584], [27.57423, -26.68408], [27.57024, -26.68365], [27.56909, -26.64716], [27.575489, -26.623045], [27.569939, -26.622146], [27.5796, -26.60753], [27.62445, -26.60924], [27.65775, -26.61774], [27.65958, -26.6042], [27.66793, -26.61055], [27.669209, -26.602249], [27.67887, -26.56065], [27.67641, -26.53869], [27.67898, -26.53659], [27.67564, -26.52908], [27.67598, -26.52435], [27.71013, -26.53001], [27.71431, -26.48939], [27.70967, -26.45467], [27.71337, -26.4424], [27.72754, -26.43121], [27.73235, -26.43872], [27.74524, -26.43778], [27.74898, -26.41917], [27.75142, -26.41916]]]]}}, {"type": "Feature", "properties": {"name": "Lesedi Local"}, "geometry": {"type": "MultiPolygon", "coordinates": [[[[28.70863, -26.34043], [28.71012, -26.34124], [28.73936, -26.32453], [28.75362, -26.32072], [28.7789, -26.31693], [28.80508, -26.30659], [28.8178, -26.34572], [28.83844, -26.34075], [28.85033, -26.36704], [28.86129, -26.39857], [28.83215, -26.40776], [28.8055, -26.42217], [28.79906, -26.42115], [28.8, -26.42402], [28.78993, -26.42645], [28.78381, -26.43813], [28.78649, -26.44917], [28.7803, -26.45052], [28.76592, -26.47145], [28.76391, -26.51801], [28.68895, -26.51309], [28.6618, -26.50586], [28.65344, -26.50868], [28.65022, -26.50795], [28.64981, -26.50943], [28.65077, -26.51042], [28.64989, -26.51109], [28.64408, -26.50804], [28.64162, -26.50757], [28.63686, -26.51671], [28.63119, -26.52464], [28.63815, -26.54731], [28.58491, -26.53856], [28.58665, -26.52003], [28.58003, -26.51803], [28.57716, -26.52683], [28.56899, -26.525], [28.57378, -26.51614], [28.54367, -26.50704], [28.54058, -26.50362], [28.54145, -26.50335], [28.54182, -26.50098], [28.53923, -26.50138], [28.53751, -26.50327], [28.53319, -26.50089], [28.52766, -26.50221], [28.524215, -26.5285], [28.52652, -26.55547], [28.52601, -26.5625], [28.52848, -26.56486], [28.53298, -26.5779], [28.52784, -26.59064], [28.50544, -26.58966], [28.50679, -26.59187], [28.50825, -26.59239], [28.50891, -26.59384], [28.50872, -26.59487], [28.50628, -26.59648], [28.50759, -26.60384], [28.5047, -26.60434], [28.50042, -26.60373], [28.49835, -26.60403], [28.49087, -26.6106], [28.48734, -26.60862], [28.48567, -26.61016], [28.48578, -26.61289], [28.48307, -26.61867], [28.48229, -26.61881], [28.4816, -26.61711], [28.47981, -26.61752], [28.49028, -26.63533], [28.4431, -26.63917], [28.44383, -26.65443], [28.42202, -26.65473], [28.41499, -26.65622], [28.4001, -26.655045], [28.393625, -26.63599], [28.39265, -26.63615], [28.3861, -26.63865], [28.38301, -26.64064], [28.38485, -26.64356], [28.38305, -26.64519], [28.38084, -26.64631], [28.37538, -26.64651], [28.37052, -26.64825], [28.36877, -26.65098], [28.36306, -26.65541], [28.36021, -26.65879], [28.35581, -26.66156], [28.35363, -26.66112], [28.351425, -26.664055], [28.35116, -26.66337], [28.33729, -26.66147], [28.28173, -26.67601], [28.25985, -26.62145], [28.24479, -26.6293], [28.23548, -26.63066], [28.23468, -26.63592], [28.22968, -26.63811], [28.23039, -26.6442], [28.22733, -26.64445], [28.22666, -26.64673], [28.22683, -26.64893], [28.224857, -26.649913], [28.21801, -26.63908], [28.21937, -26.6363], [28.19874, -26.60969], [28.17947, -26.57937], [28.19335, -26.57328], [28.20412, -26.57023], [28.20627, -26.55619], [28.21564, -26.55231], [28.22016, -26.54744], [28.22231, -26.54615], [28.23108, -26.54674], [28.231145, -26.5462], [28.243655, -26.547735], [28.254875, -26.54741], [28.25947, -26.54815], [28.26023, -26.545615], [28.26463, -26.5463], [28.26719, -26.54519], [28.26666, -26.54865], [28.271895, -26.550825], [28.2738, -26.54866], [28.28409, -26.54557], [28.28362, -26.543615], [28.29831, -26.5366], [28.29121, -26.53129], [28.29615, -26.52687], [28.293985, -26.5174], [28.30728, -26.50815], [28.30419, -26.50391], [28.30641, -26.50233], [28.30842, -26.49938], [28.312775, -26.497815], [28.32111, -26.50252], [28.32941, -26.50052], [28.33864, -26.49666], [28.32383, -26.48295], [28.31591, -26.48991], [28.29637, -26.47815], [28.28883, -26.48233], [28.28386, -26.48072], [28.27137, -26.503], [28.24909, -26.492065], [28.24379, -26.49565], [28.23722, -26.49396], [28.22857, -26.48511], [28.22578, -26.4798], [28.22522, -26.47259], [28.21767, -26.47133], [28.19883, -26.4636], [28.22345, -26.4324], [28.24378, -26.43435], [28.26375, -26.43504], [28.2711, -26.4137], [28.26461, -26.40881], [28.24418, -26.37657], [28.25095, -26.37277], [28.24857, -26.37055], [28.25973, -26.3672], [28.262147, -26.363525], [28.27401, -26.35868], [28.28633, -26.36742], [28.29361, -26.38431], [28.30905, -26.36793], [28.35493, -26.40696], [28.370295, -26.393631], [28.37366, -26.3945], [28.38272, -26.38569], [28.38505, -26.39002], [28.38132, -26.39431], [28.38684, -26.40392], [28.39408, -26.39771], [28.40174, -26.40053], [28.39982, -26.40219], [28.40666, -26.40883], [28.37178, -26.43544], [28.37559, -26.43952], [28.380829, -26.447204], [28.40707, -26.43041], [28.41472, -26.42281], [28.45152, -26.44125], [28.45313, -26.43948], [28.45581, -26.438595], [28.45748, -26.439185], [28.457665, -26.437645], [28.4634, -26.44304], [28.46362, -26.43814], [28.47142, -26.43986], [28.49908, -26.4393], [28.50002, -26.45321], [28.49703, -26.45298], [28.49724, -26.45662], [28.50026, -26.45683], [28.50077, -26.46437], [28.523141, -26.46558], [28.518191, -26.452852], [28.51723, -26.45311], [28.51635, -26.44791], [28.52428, -26.44466], [28.52213, -26.44266], [28.525733, -26.4408], [28.52332, -26.44041], [28.52086, -26.43905], [28.5196, -26.43752], [28.5195, -26.43822], [28.51726, -26.43578], [28.51618, -26.43574], [28.51428, -26.4324], [28.50945, -26.38392], [28.50775, -26.38052], [28.50874, -26.38017], [28.51538, -26.36404], [28.51788, -26.36196], [28.51736, -26.35809], [28.51522, -26.35699], [28.516665, -26.35389], [28.51425, -26.34655], [28.51902, -26.33898], [28.52497, -26.33235], [28.52248, -26.32856], [28.52279, -26.32622], [28.519596, -26.325139], [28.51817, -26.274233], [28.51363, -26.22143], [28.52715, -26.17874], [28.53429, -26.17224], [28.53054, -26.22531], [28.58197, -26.23729], [28.62229, -26.24838], [28.6269, -26.29244], [28.672797, -26.311688], [28.672728, -26.320913], [28.70863, -26.34043]]]]}}, {"type": "Feature", "properties": {"name": "Midvaal Local"}, "geometry": {"type": "MultiPolygon", "coordinates": [[[[27.990314, -26.346326], [28.00901, -26.35058], [28.011389, -26.339163], [28.01841, -26.34167], [28.02123, -26.34203], [28.02954, -26.34162], [28.03961, -26.34244], [28.04314, -26.34718], [28.04193, -26.34751], [28.04783, -26.35958], [28.05034, -26.35597], [28.051068, -26.34908], [28.08115, -26.33571], [28.08721, -26.34398], [28.08733, -26.34499], [28.097516, -26.36031], [28.08883, -26.38185], [28.08626, -26.39063], [28.08464, -26.39293], [28.07775, -26.40914], [28.07606, -26.41537], [28.077455, -26.415541], [28.07718, -26.4173], [28.08594, -26.41695], [28.0898, -26.41792], [28.094341, -26.41745], [28.10156, -26.42022], [28.117909, -26.41907], [28.12567, -26.43067], [28.13723, -26.42552], [28.13473, -26.42291], [28.14723, -26.42393], [28.16029, -26.43803], [28.183014, -26.419235], [28.18431, -26.42509], [28.18294, -26.4284], [28.18106, -26.42918], [28.18684, -26.43033], [28.19597, -26.42922], [28.17812, -26.44375], [28.18769, -26.45312], [28.19285, -26.4475], [28.20874, -26.43402], [28.21518, -26.43578], [28.21705, -26.43342], [28.22046, -26.43563], [28.19883, -26.4636], [28.21767, -26.47133], [28.22522, -26.47259], [28.22578, -26.4798], [28.22857, -26.48511], [28.23722, -26.49396], [28.24379, -26.49565], [28.24909, -26.492065], [28.27137, -26.503], [28.28386, -26.48072], [28.28883, -26.48233], [28.29637, -26.47815], [28.31591, -26.48991], [28.32383, -26.48295], [28.33864, -26.49666], [28.32941, -26.50052], [28.32111, -26.50252], [28.312775, -26.497815], [28.30842, -26.49938], [28.30641, -26.50233], [28.30419, -26.50391], [28.30728, -26.50815], [28.293985, -26.5174], [28.29615, -26.52687], [28.29121, -26.53129], [28.29831, -26.5366], [28.28362, -26.543615], [28.28409, -26.54557], [28.2738, -26.54866], [28.271895, -26.550825], [28.26666, -26.54865], [28.26719, -26.54519], [28.26463, -26.5463], [28.26023, -26.545615], [28.25947, -26.54815], [28.254875, -26.54741], [28.243655, -26.547735], [28.231145, -26.5462], [28.23108, -26.54674], [28.22231, -26.54615], [28.22016, -26.54744], [28.21564, -26.55231], [28.20627, -26.55619], [28.20412, -26.57023], [28.19335, -26.57328], [28.17947, -26.57937], [28.19874, -26.60969], [28.21937, -26.6363], [28.21801, -26.63908], [28.224857, -26.649913], [28.22683, -26.64893], [28.22666, -26.64673], [28.22733, -26.64445], [28.23039, -26.6442], [28.22968, -26.63811], [28.23468, -26.63592], [28.23548, -26.63066], [28.24479, -26.6293], [28.25985, -26.62145], [28.28173, -26.67601], [28.33729, -26.66147], [28.35116, -26.66337], [28.351425, -26.664055], [28.35363, -26.66112], [28.35581, -26.66156], [28.36021, -26.65879], [28.36306, -26.65541], [28.36877, -26.65098], [28.37052, -26.64825], [28.37538, -26.64651], [28.38084, -26.64631], [28.38305, -26.64519], [28.38485, -26.64356], [28.38301, -26.64064], [28.3861, -26.63865], [28.39265, -26.63615], [28.393625, -26.63599], [28.4001, -26.655045], [28.38296, -26.71753], [28.39397, -26.71675], [28.40685, -26.76171], [28.3482, -26.77291], [28.34911, -26.77787], [28.34259, -26.77909], [28.34345, -26.78546], [28.33938, -26.78559], [28.32238, -26.7923], [28.31941, -26.79267], [28.32161, -26.81173], [28.31833, -26.8118], [28.31929, -26.81942], [28.32257, -26.82022], [28.32501, -26.84107], [28.30955, -26.87943], [28.28352, -26.87707], [28.28431, -26.86438], [28.26333, -26.86646], [28.26191, -26.87524], [28.243465, -26.873693], [28.24841, -26.88406], [28.24428, -26.88478], [28.23879, -26.88165], [28.23539, -26.88136], [28.23307, -26.88583], [28.22857, -26.89139], [28.22744, -26.89391], [28.22768, -26.9004], [28.22981, -26.90659], [28.23217, -26.90929], [28.23854, -26.91303], [28.2402, -26.91545], [28.24, -26.91682], [28.23742, -26.91798], [28.23083, -26.92294], [28.2269, -26.92381], [28.22511, -26.92325], [28.22225, -26.92025], [28.21867, -26.91436], [28.21498, -26.91162], [28.21051, -26.91115], [28.20519, -26.91217], [28.20298, -26.9116], [28.19316, -26.89623], [28.19077, -26.8938], [28.1862, -26.892], [28.18504, -26.89072], [28.18419, -26.88871], [28.18586, -26.87672], [28.18518, -26.87205], [28.17993, -26.86182], [28.17994, -26.85757], [28.17855, -26.85316], [28.17345, -26.84674], [28.17084, -26.84569], [28.15985, -26.84545], [28.15622, -26.84701], [28.15377, -26.85058], [28.15544, -26.85364], [28.15845, -26.85617], [28.16109, -26.85985], [28.16605, -26.86496], [28.16782, -26.86799], [28.17032, -26.87717], [28.17133, -26.88371], [28.17108, -26.8873], [28.16871, -26.89002], [28.16682, -26.89076], [28.16382, -26.89037], [28.15808, -26.88488], [28.15388, -26.88408], [28.15012, -26.88464], [28.14291, -26.88983], [28.14008, -26.88987], [28.13538, -26.88794], [28.13236, -26.88769], [28.12513, -26.89092], [28.12112, -26.89026], [28.11913, -26.88928], [28.117, -26.88602], [28.11595, -26.8827], [28.1156, -26.87736], [28.11624, -26.87352], [28.12081, -26.86939], [28.12153, -26.86446], [28.1213, -26.85579], [28.12049, -26.85261], [28.11481, -26.84438], [28.11217, -26.84301], [28.10457, -26.84122], [28.09559, -26.84023], [28.08798, -26.83785], [28.08016, -26.83469], [28.07627, -26.83232], [28.07094, -26.82636], [28.06574, -26.82351], [28.06561, -26.8209], [28.05819, -26.81761], [28.05482, -26.81511], [28.05104, -26.81414], [28.04891, -26.80663], [28.04907, -26.80317], [28.04761, -26.80119], [28.04555, -26.79995], [28.0407, -26.79764], [28.03783, -26.79734], [28.03496, -26.79479], [28.02329, -26.79591], [28.01855, -26.79553], [28.01507, -26.79418], [28.01419, -26.79163], [28.01551, -26.78962], [28.01712, -26.78852], [28.02128, -26.78764], [28.02652, -26.78444], [28.02814, -26.78273], [28.02844, -26.78045], [28.02764, -26.77964], [28.02455, -26.77959], [28.0201, -26.7754], [28.01107, -26.77167], [28.00712, -26.76925], [28.00655, -26.76803], [28.00715, -26.76559], [28.00676, -26.76311], [28.00549, -26.75891], [28.00253, -26.75334], [28.00169, -26.74826], [28.00042, -26.74563], [27.99771, -26.7428], [27.993, -26.73463], [27.99204, -26.72753], [27.99479, -26.71827], [27.99959, -26.70825], [28.00049, -26.70332], [28.00205, -26.70335], [28.00479, -26.71446], [28.01726, -26.71613], [28.01649, -26.6967], [28.02492, -26.69545], [28.02174, -26.67832], [28.00217, -26.67473], [28.00379, -26.66453], [28.00789, -26.6654], [28.00845, -26.66652], [28.00822, -26.66927], [28.00881, -26.67011], [28.01558, -26.67219], [28.02077, -26.67255], [28.02002, -26.66965], [28.01253, -26.65913], [28.013741, -26.652407], [28.005129, -26.651907], [28.000374, -26.6524], [27.961988, -26.64484], [27.95856, -26.64756], [27.95904, -26.65112], [27.95643, -26.65159], [27.95406, -26.64993], [27.94956, -26.64946], [27.98236, -26.6075], [27.98548, -26.60242], [27.98157, -26.60138], [27.98123, -26.60228], [27.96931, -26.59208], [27.96619, -26.59485], [27.94564, -26.5963], [27.95988, -26.57989], [27.98302, -26.55583], [27.980895, -26.55417], [27.96297, -26.55017], [27.9028, -26.5248], [27.90882, -26.512656], [27.89371, -26.50775], [27.88895, -26.53517], [27.88803, -26.53524], [27.88601, -26.51086], [27.88655, -26.50544], [27.88578, -26.50519], [27.88612, -26.50444], [27.88202, -26.48949], [27.88079, -26.48716], [27.87536, -26.48089], [27.87205, -26.47818], [27.87073, -26.47561], [27.869075, -26.444801], [27.87733, -26.43919], [27.88012, -26.43867], [27.88012, -26.43965], [27.87864, -26.44088], [27.87915, -26.44675], [27.91484, -26.44097], [27.91221, -26.45849], [27.91751, -26.45858], [27.92227, -26.42898], [27.93338, -26.424185], [27.93555, -26.39982], [27.89316, -26.40431], [27.89436, -26.39919], [27.893846, -26.397467], [27.89526, -26.39165], [27.89546, -26.38177], [27.89748, -26.37557], [27.90584, -26.36388], [27.91223, -26.35895], [27.927255, -26.35628], [27.95339, -26.3532], [27.95686, -26.33516], [27.95887, -26.33597], [27.97034, -26.33711], [27.96998, -26.3417], [27.990314, -26.346326]]]]}}, {"type": "Feature", "properties": {"name": "Mogale City Local"}, "geometry": {"type": "MultiPolygon", "coordinates": [[[[27.64355, -25.79592], [27.6466, -25.81414], [27.64176, -25.81145], [27.6411, -25.8128], [27.64548, -25.81983], [27.64885, -25.83502], [27.64848, -25.83813], [27.64683, -25.83942], [27.64714, -25.84057], [27.64964, -25.842712], [27.65045, -25.84273], [27.64967, -25.84354], [27.65464, -25.84533], [27.65643, -25.84508], [27.6582, -25.84363], [27.65964, -25.84334], [27.66001, -25.84235], [27.66216, -25.84111], [27.66272, -25.83986], [27.66392, -25.83997], [27.66416, -25.84177], [27.68493, -25.8754], [27.70456, -25.8683], [27.7303, -25.85521], [27.7358, -25.85531], [27.7427, -25.85024], [27.74272, -25.86303], [27.74455, -25.89462], [27.79103, -25.87468], [27.83147, -25.860173], [27.84396, -25.8489], [27.8518, -25.84641], [27.84824, -25.83929], [27.85874, -25.81882], [27.86568, -25.81917], [27.88865, -25.82309], [27.89168, -25.82291], [27.89008, -25.82985], [27.88527, -25.83537], [27.88438, -25.83875], [27.88349, -25.8457], [27.88474, -25.85175], [27.8826, -25.86187], [27.8982, -25.85974], [27.89947, -25.88278], [27.89035, -25.88395], [27.893798, -25.905681], [27.90098, -25.90526], [27.90115, -25.90793], [27.92248, -25.91756], [27.93201, -25.91615], [27.94085, -25.92838], [27.93234, -25.92594], [27.90839, -25.92693], [27.90768, -25.92873], [27.90997, -25.92956], [27.90976, -25.9303], [27.90518, -25.93308], [27.90822, -25.94252], [27.90945, -25.94413], [27.89759, -25.95436], [27.91058, -25.96764], [27.90736, -25.97009], [27.91883, -25.97126], [27.92271, -25.9707], [27.9256, -25.97861], [27.92353, -25.99831], [27.91264, -26.02821], [27.90437, -26.03111], [27.89627, -26.06185], [27.877471, -26.071156], [27.875233, -26.067492], [27.870089, -26.07011], [27.864645, -26.056575], [27.85157, -26.05979], [27.84964, -26.06238], [27.86651, -26.07511], [27.86437, -26.07554], [27.842595, -26.071845], [27.84225, -26.0723], [27.84332, -26.07312], [27.84503, -26.07842], [27.84476, -26.08254], [27.84415, -26.08326], [27.83531, -26.08463], [27.839665, -26.092025], [27.83911, -26.09222], [27.83926, -26.09433], [27.83842, -26.0955], [27.83985, -26.09726], [27.83901, -26.09914], [27.84006, -26.1012], [27.84011, -26.10432], [27.83946, -26.10719], [27.83794, -26.10765], [27.83528, -26.1068], [27.83206, -26.10856], [27.83184, -26.10993], [27.83262, -26.11137], [27.83189, -26.11365], [27.83217, -26.11456], [27.839, -26.11685], [27.83786, -26.11991], [27.83881, -26.12022], [27.83738, -26.12449], [27.835744, -26.126031], [27.81304, -26.16656], [27.812245, -26.16695], [27.81815, -26.16993], [27.81974, -26.17299], [27.81955, -26.17437], [27.818047, -26.17596], [27.81352, -26.17606], [27.80906, -26.17506], [27.8106, -26.18208], [27.78614, -26.18195], [27.77199, -26.21321], [27.71827, -26.19893], [27.72195, -26.18608], [27.72464, -26.18887], [27.745053, -26.180126], [27.74342, -26.17671], [27.74422, -26.17549], [27.74639, -26.17663], [27.74711, -26.17552], [27.74493, -26.1744], [27.75053, -26.16556], [27.75093, -26.16247], [27.73695, -26.16274], [27.71957, -26.15477], [27.72125, -26.14072], [27.73284, -26.14337], [27.73628, -26.12795], [27.72106, -26.12721], [27.71795, -26.12623], [27.71232, -26.11909], [27.7061, -26.11505], [27.70335, -26.11575], [27.70065, -26.11791], [27.69623, -26.11724], [27.69256, -26.11986], [27.69058, -26.11956], [27.6854, -26.1157], [27.683781, -26.096745], [27.68142, -26.09546], [27.67386, -26.09572], [27.68176, -26.11686], [27.63046, -26.11255], [27.61336, -26.11037], [27.614259, -26.062454], [27.61236, -26.08684], [27.60421, -26.08969], [27.55123, -26.10472], [27.5413, -26.0511], [27.53573, -26.079325], [27.46734, -26.09227], [27.42522, -26.08939], [27.43521, -26.02695], [27.43527, -26.02511], [27.4338, -26.02486], [27.43399, -26.02251], [27.43569, -26.02257], [27.43886, -26.01426], [27.44981, -26.01625], [27.45701, -25.98185], [27.453566, -25.92016], [27.46334, -25.92147], [27.45704, -25.88829], [27.47, -25.8881], [27.461947, -25.867606], [27.48436, -25.86352], [27.49754, -25.85959], [27.50019, -25.86132], [27.51327, -25.86033], [27.53229, -25.84996], [27.53358, -25.85215], [27.54248, -25.85258], [27.5474, -25.8514], [27.54771, -25.85052], [27.54598, -25.84616], [27.55985, -25.84284], [27.57457, -25.83599], [27.59829, -25.81957], [27.5993, -25.81271], [27.60555, -25.80823], [27.64032, -25.79633], [27.64355, -25.79592]]]]}}, {"type": "Feature", "properties": {"name": "Merafong City Local"}, "geometry": {"type": "MultiPolygon", "coordinates": [[[[27.4835, -26.11687], [27.489957, -26.127971], [27.47405, -26.20183], [27.46589, -26.20051], [27.46863, -26.21737], [27.47151, -26.244955], [27.48191, -26.28444], [27.52606, -26.30257], [27.52521, -26.34732], [27.54785, -26.34328], [27.55119, -26.35468], [27.55051, -26.35973], [27.54931, -26.36229], [27.55111, -26.37398], [27.55066, -26.37808], [27.54973, -26.38041], [27.55028, -26.3864], [27.540118, -26.387581], [27.5369, -26.40192], [27.53728, -26.40586], [27.54514, -26.42677], [27.53853, -26.42958], [27.53539, -26.43185], [27.53532, -26.43308], [27.54283, -26.4317], [27.54914, -26.44474], [27.55044, -26.4406], [27.55146, -26.44156], [27.55709, -26.45638], [27.58093, -26.45452], [27.58615, -26.45316], [27.61195, -26.45089], [27.61559, -26.44972], [27.61357, -26.44298], [27.62436, -26.4449], [27.629908, -26.452737], [27.62633, -26.4938], [27.60715, -26.4916], [27.60311, -26.53065], [27.61247, -26.53296], [27.60499, -26.55699], [27.60437, -26.59196], [27.54569, -26.57443], [27.58272, -26.59578], [27.5796, -26.60753], [27.569939, -26.622146], [27.575489, -26.623045], [27.56909, -26.64716], [27.50653, -26.64623], [27.45483, -26.63033], [27.43467, -26.63181], [27.425759, -26.649468], [27.42299, -26.64782], [27.37835, -26.61068], [27.38539, -26.60427], [27.36583, -26.57383], [27.33864, -26.57173], [27.33885, -26.57812], [27.3315, -26.59032], [27.34422, -26.61313], [27.299111, -26.622118], [27.29737, -26.62164], [27.29688, -26.62028], [27.2933, -26.6223], [27.28619, -26.62141], [27.28512, -26.62237], [27.28418, -26.62219], [27.28589, -26.62445], [27.28549, -26.62496], [27.28154, -26.62504], [27.27966, -26.62581], [27.27934, -26.62445], [27.27848, -26.6253], [27.27891, -26.62647], [27.27684, -26.62592], [27.27734, -26.62689], [27.27688, -26.629], [27.27448, -26.62985], [27.27464, -26.63085], [27.27307, -26.63218], [27.27227, -26.63152], [27.27282, -26.63088], [27.27176, -26.63039], [27.27001, -26.63222], [27.26826, -26.63287], [27.26734, -26.63236], [27.26772, -26.63117], [27.26714, -26.63056], [27.26569, -26.63249], [27.26444, -26.63167], [27.26168, -26.63354], [27.26049, -26.63149], [27.25738, -26.63082], [27.25753, -26.63201], [27.25369, -26.63248], [27.25216, -26.6338], [27.25079, -26.63392], [27.25125, -26.6347], [27.2497, -26.63495], [27.24938, -26.63406], [27.24885, -26.63605], [27.24781, -26.63603], [27.2482, -26.63476], [27.24743, -26.63437], [27.24446, -26.63502], [27.24187, -26.63646], [27.23502, -26.61862], [27.23321, -26.59546], [27.23452, -26.59492], [27.22836, -26.57105], [27.182637, -26.57462], [27.18256, -26.56313], [27.17455, -26.54921], [27.1671, -26.55143], [27.15876, -26.52542], [27.15634, -26.52431], [27.17857, -26.52098], [27.18825, -26.52582], [27.18283, -26.52033], [27.1986, -26.51799], [27.20258, -26.51662], [27.21247, -26.5148], [27.231421, -26.505481], [27.22378, -26.45177], [27.22459, -26.45161], [27.22485, -26.44397], [27.187952, -26.377863], [27.23481, -26.33827], [27.27481, -26.31425], [27.2993, -26.30448], [27.330071, -26.281815], [27.30839, -26.22518], [27.29141, -26.14462], [27.31056, -26.14791], [27.31051, -26.14726], [27.35826, -26.15461], [27.36172, -26.11567], [27.41944, -26.1175], [27.42236, -26.08917], [27.46915, -26.0925], [27.4835, -26.11687]]]]}}, {"type": "Feature", "properties": {"name": "Rand West City Local"}, "geometry": {"type": "MultiPolygon", "coordinates": [[[[27.55033, -26.09988], [27.55123, -26.10472], [27.60421, -26.08969], [27.61236, -26.08684], [27.614259, -26.062454], [27.61336, -26.11037], [27.63046, -26.11255], [27.68176, -26.11686], [27.67386, -26.09572], [27.68142, -26.09546], [27.683781, -26.096745], [27.6854, -26.1157], [27.69058, -26.11956], [27.69256, -26.11986], [27.69623, -26.11724], [27.70065, -26.11791], [27.70335, -26.11575], [27.7061, -26.11505], [27.71232, -26.11909], [27.71795, -26.12623], [27.72106, -26.12721], [27.73628, -26.12795], [27.73284, -26.14337], [27.72125, -26.14072], [27.71957, -26.15477], [27.73695, -26.16274], [27.75093, -26.16247], [27.75053, -26.16556], [27.74493, -26.1744], [27.74711, -26.17552], [27.74639, -26.17663], [27.74422, -26.17549], [27.74342, -26.17671], [27.745053, -26.180126], [27.72464, -26.18887], [27.72195, -26.18608], [27.71827, -26.19893], [27.71776, -26.202857], [27.72029, -26.20386], [27.71958, -26.21067], [27.71851, -26.21389], [27.7157, -26.2143], [27.71427, -26.21387], [27.72495, -26.2387], [27.72853, -26.24249], [27.72915, -26.24629], [27.75348, -26.25804], [27.74465, -26.27949], [27.7438, -26.28722], [27.77651, -26.28533], [27.7828, -26.30435], [27.78972, -26.30391], [27.7923, -26.28747], [27.81368, -26.28565], [27.81421, -26.28473], [27.81484, -26.285], [27.81515, -26.28692], [27.81529, -26.30339], [27.82181, -26.30407], [27.82447, -26.33748], [27.81045, -26.33289], [27.81159, -26.364475], [27.751864, -26.361995], [27.754736, -26.38411], [27.76129, -26.41915], [27.74898, -26.41917], [27.74524, -26.43778], [27.73235, -26.43872], [27.72754, -26.43121], [27.71337, -26.4424], [27.70967, -26.45467], [27.71431, -26.48939], [27.71013, -26.53001], [27.67598, -26.52435], [27.67564, -26.52908], [27.67898, -26.53659], [27.67641, -26.53869], [27.67887, -26.56065], [27.669209, -26.602249], [27.66793, -26.61055], [27.65958, -26.6042], [27.65775, -26.61774], [27.62445, -26.60924], [27.5796, -26.60753], [27.58272, -26.59578], [27.54569, -26.57443], [27.60437, -26.59196], [27.60499, -26.55699], [27.61247, -26.53296], [27.60311, -26.53065], [27.60715, -26.4916], [27.62633, -26.4938], [27.629908, -26.452737], [27.62436, -26.4449], [27.61357, -26.44298], [27.61559, -26.44972], [27.61195, -26.45089], [27.58615, -26.45316], [27.58093, -26.45452], [27.55709, -26.45638], [27.55146, -26.44156], [27.55044, -26.4406], [27.54914, -26.44474], [27.54283, -26.4317], [27.53532, -26.43308], [27.53539, -26.43185], [27.53853, -26.42958], [27.54514, -26.42677], [27.53728, -26.40586], [27.5369, -26.40192], [27.540118, -26.387581], [27.55028, -26.3864], [27.54973, -26.38041], [27.55066, -26.37808], [27.55111, -26.37398], [27.54931, -26.36229], [27.55051, -26.35973], [27.55119, -26.35468], [27.54785, -26.34328], [27.52521, -26.34732], [27.52606, -26.30257], [27.48191, -26.28444], [27.47151, -26.244955], [27.46863, -26.21737], [27.46589, -26.20051], [27.47405, -26.20183], [27.489957, -26.127971], [27.46915, -26.0925], [27.46737, -26.092], [27.53573, -26.079325], [27.5413, -26.0511], [27.55033, -26.09988]]]]}}, {"type": "Feature", "properties": {"name": "Sedibeng District"}, "geometry": {"type": "MultiPolygon", "coordinates": [[[[28.70863, -26.34043], [28.71012, -26.34124], [28.73936, -26.32453], [28.75362, -26.32072], [28.7789, -26.31693], [28.80508, -26.30659], [28.8178, -26.34572], [28.83844, -26.34075], [28.85033, -26.36704], [28.86129, -26.39857], [28.83215, -26.40776], [28.8055, -26.42217], [28.79906, -26.42115], [28.8, -26.42402], [28.78993, -26.42645], [28.78381, -26.43813], [28.78649, -26.44917], [28.7803, -26.45052], [28.76592, -26.47145], [28.76391, -26.51801], [28.68895, -26.51309], [28.6618, -26.50586], [28.65344, -26.50868], [28.65022, -26.50795], [28.64981, -26.50943], [28.65077, -26.51042], [28.64989, -26.51109], [28.64408, -26.50804], [28.64162, -26.50757], [28.63686, -26.51671], [28.63119, -26.52464], [28.63815, -26.54731], [28.58491, -26.53856], [28.58665, -26.52003], [28.58003, -26.51803], [28.57716, -26.52683], [28.56899, -26.525], [28.57378, -26.51614], [28.54367, -26.50704], [28.54058, -26.50362], [28.54145, -26.50335], [28.54182, -26.50098], [28.53923, -26.50138], [28.53751, -26.50327], [28.53319, -26.50089], [28.52766, -26.50221], [28.524215, -26.5285], [28.52652, -26.55547], [28.52601, -26.5625], [28.52848, -26.56486], [28.53298, -26.5779], [28.52784, -26.59064], [28.50544, -26.58966], [28.50679, -26.59187], [28.50825, -26.59239], [28.50891, -26.59384], [28.50872, -26.59487], [28.50628, -26.59648], [28.50759, -26.60384], [28.5047, -26.60434], [28.49875, -26.60391], [28.49589, -26.60568], [28.49111, -26.61053], [28.48774, -26.60856], [28.48601, -26.60961], [28.48546, -26.61113], [28.48578, -26.61289], [28.48307, -26.61867], [28.48229, -26.61881], [28.4816, -26.61711], [28.47981, -26.61752], [28.49028, -26.63533], [28.4431, -26.63917], [28.44383, -26.65443], [28.42202, -26.65473], [28.41499, -26.65622], [28.4001, -26.655045], [28.38296, -26.71753], [28.39397, -26.71675], [28.40685, -26.76171], [28.3482, -26.77291], [28.34911, -26.77787], [28.34259, -26.77909], [28.34345, -26.78546], [28.33938, -26.78559], [28.32238, -26.7923], [28.31941, -26.79267], [28.32161, -26.81173], [28.31833, -26.8118], [28.31929, -26.81942], [28.32257, -26.82022], [28.32501, -26.84107], [28.30955, -26.87943], [28.28352, -26.87707], [28.28431, -26.86438], [28.26333, -26.86646], [28.26191, -26.87524], [28.243465, -26.873693], [28.24841, -26.88406], [28.24428, -26.88478], [28.23879, -26.88165], [28.23539, -26.88136], [28.23307, -26.88583], [28.22857, -26.89139], [28.22744, -26.89391], [28.22768, -26.9004], [28.22981, -26.90659], [28.23217, -26.90929], [28.23854, -26.91303], [28.24025, -26.91597], [28.24, -26.91682], [28.23678, -26.91842], [28.23266, -26.92191], [28.22943, -26.92347], [28.2265, -26.92383], [28.22461, -26.92289], [28.22225, -26.92025], [28.21867, -26.91436], [28.21619, -26.91215], [28.21254, -26.91111], [28.2057, -26.91216], [28.20298, -26.9116], [28.19316, -26.89623], [28.19077, -26.8938], [28.1862, -26.892], [28.18504, -26.89072], [28.18419, -26.88871], [28.18586, -26.87672], [28.18518, -26.87205], [28.17993, -26.86182], [28.17994, -26.85757], [28.17855, -26.85316], [28.17345, -26.84674], [28.17084, -26.84569], [28.15985, -26.84545], [28.15622, -26.84701], [28.15377, -26.85058], [28.15544, -26.85364], [28.15845, -26.85617], [28.16109, -26.85985], [28.16605, -26.86496], [28.16782, -26.86799], [28.17032, -26.87717], [28.17133, -26.88371], [28.17108, -26.8873], [28.16871, -26.89002], [28.16682, -26.89076], [28.16382, -26.89037], [28.15808, -26.88488], [28.15388, -26.88408], [28.15012, -26.88464], [28.14291, -26.88983], [28.14008, -26.88987], [28.13538, -26.88794], [28.13236, -26.88769], [28.12513, -26.89092], [28.12112, -26.89026], [28.11913, -26.88928], [28.117, -26.88602], [28.11595, -26.8827], [28.1156, -26.87736], [28.11624, -26.87352], [28.12081, -26.86939], [28.12153, -26.86446], [28.1213, -26.85579], [28.12049, -26.85261], [28.11481, -26.84438], [28.11217, -26.84301], [28.10457, -26.84122], [28.09559, -26.84023], [28.08798, -26.83785], [28.08016, -26.83469], [28.07627, -26.83232], [28.07094, -26.82636], [28.06574, -26.82351], [28.06561, -26.8209], [28.05819, -26.81761], [28.05482, -26.81511], [28.05104, -26.81414], [28.04891, -26.80663], [28.04907, -26.80317], [28.04761, -26.80119], [28.04555, -26.79995], [28.0407, -26.79764], [28.03783, -26.79734], [28.03496, -26.79479], [28.02329, -26.79591], [28.01855, -26.79553], [28.01507, -26.79418], [28.01419, -26.79163], [28.01551, -26.78962], [28.01712, -26.78852], [28.02128, -26.78764], [28.02652, -26.78444], [28.02814, -26.78273], [28.02844, -26.78045], [28.02764, -26.77964], [28.02455, -26.77959], [28.0201, -26.7754], [28.01107, -26.77167], [28.00688, -26.76885], [28.00676, -26.76311], [28.00549, -26.75891], [28.00253, -26.75334], [28.00169, -26.74826], [28.00042, -26.74563], [27.99771, -26.7428], [27.993, -26.73463], [27.99204, -26.72753], [27.99464, -26.71866], [28.00036, -26.70578], [28.00033, -26.69918], [27.99956, -26.69602], [27.99653, -26.69207], [27.98688, -26.68273], [27.98274, -26.68013], [27.9812, -26.67676], [27.97754, -26.67189], [27.97287, -26.66918], [27.96911, -26.66879], [27.96359, -26.67117], [27.95302, -26.6717], [27.94254, -26.67463], [27.94096, -26.6759], [27.93875, -26.67974], [27.93574, -26.68763], [27.93516, -26.69268], [27.92976, -26.69977], [27.9256, -26.70377], [27.92283, -26.70515], [27.91345, -26.70654], [27.90803, -26.70592], [27.90158, -26.70834], [27.89518, -26.70969], [27.89317, -26.71095], [27.8918, -26.71437], [27.8955, -26.71781], [27.89489, -26.72123], [27.89276, -26.72586], [27.88856, -26.72943], [27.88468, -26.73433], [27.88304, -26.74396], [27.88002, -26.74619], [27.87217, -26.74774], [27.86626, -26.74623], [27.85786, -26.74698], [27.84945, -26.74561], [27.84582, -26.74625], [27.83385, -26.75068], [27.83056, -26.75114], [27.82162, -26.74952], [27.80978, -26.7509], [27.79021, -26.74956], [27.78244, -26.75079], [27.77045, -26.759], [27.76815, -26.76521], [27.76852, -26.77528], [27.76695, -26.78059], [27.76707, -26.78294], [27.76796, -26.78651], [27.77188, -26.79177], [27.77267, -26.79408], [27.77205, -26.7971], [27.76981, -26.79929], [27.76457, -26.79852], [27.75897, -26.79635], [27.75447, -26.791], [27.7498, -26.78804], [27.74766, -26.78589], [27.74659, -26.77969], [27.74149, -26.76997], [27.7397, -26.76852], [27.73816, -26.76835], [27.73522, -26.76477], [27.73204, -26.76236], [27.72649, -26.76041], [27.70169, -26.76398], [27.69378, -26.76342], [27.68818, -26.76176], [27.68527, -26.76338], [27.68379, -26.76543], [27.67526, -26.77174], [27.66621, -26.77356], [27.66228, -26.77354], [27.65721, -26.77081], [27.64308, -26.76848], [27.64104, -26.76887], [27.63903, -26.77097], [27.6357, -26.77203], [27.63152, -26.77156], [27.62973, -26.76972], [27.62839, -26.76603], [27.62921, -26.76261], [27.63186, -26.75914], [27.63578, -26.75151], [27.6323, -26.74549], [27.6324, -26.74397], [27.63465, -26.7388], [27.63447, -26.73574], [27.63341, -26.7337], [27.63187, -26.73274], [27.62952, -26.73235], [27.61049, -26.7326], [27.60924, -26.73411], [27.60871, -26.73916], [27.60719, -26.74109], [27.6061, -26.74132], [27.60449, -26.74068], [27.60088, -26.74059], [27.59668, -26.7373], [27.59358, -26.73714], [27.59043, -26.73836], [27.58881, -26.7357], [27.58141, -26.731], [27.58691, -26.72729], [27.58912, -26.72409], [27.60224, -26.72285], [27.60166, -26.71486], [27.60284, -26.69244], [27.57531, -26.71569], [27.57416, -26.71584], [27.57423, -26.68408], [27.57024, -26.68365], [27.56909, -26.64716], [27.575489, -26.623045], [27.569939, -26.622146], [27.5796, -26.60753], [27.62445, -26.60924], [27.65775, -26.61774], [27.65958, -26.6042], [27.66793, -26.61055], [27.669209, -26.602249], [27.67887, -26.56065], [27.67641, -26.53869], [27.67898, -26.53659], [27.67564, -26.52908], [27.67598, -26.52435], [27.71013, -26.53001], [27.71431, -26.48939], [27.70967, -26.45467], [27.71337, -26.4424], [27.72754, -26.43121], [27.73235, -26.43872], [27.74524, -26.43778], [27.74898, -26.41917], [27.78618, -26.41898], [27.79163, -26.42019], [27.79455, -26.42888], [27.78594, -26.44762], [27.7834, -26.4467], [27.78028, -26.45258], [27.776004, -26.452221], [27.776014, -26.449019], [27.769156, -26.449021], [27.76894, -26.44565], [27.75924, -26.44466], [27.75971, -26.48387], [27.77886, -26.48501], [27.77955, -26.47922], [27.82169, -26.48488], [27.824468, -26.479878], [27.82773, -26.50443], [27.83507, -26.49045], [27.85292, -26.50029], [27.85985, -26.50647], [27.86043, -26.50626], [27.864548, -26.509998], [27.86614, -26.51251], [27.87563, -26.5205], [27.8802, -26.52226], [27.88671, -26.52236], [27.88737, -26.52629], [27.88601, -26.51086], [27.88655, -26.50544], [27.88578, -26.50519], [27.88612, -26.50444], [27.88202, -26.48949], [27.88079, -26.48716], [27.87536, -26.48089], [27.87205, -26.47818], [27.87073, -26.47561], [27.869075, -26.444801], [27.87733, -26.43919], [27.88012, -26.43867], [27.88012, -26.43965], [27.87864, -26.44088], [27.87915, -26.44675], [27.91484, -26.44097], [27.91221, -26.45849], [27.91751, -26.45858], [27.92227, -26.42898], [27.93338, -26.424185], [27.93555, -26.39982], [27.89316, -26.40431], [27.89436, -26.39919], [27.893846, -26.397467], [27.89526, -26.39165], [27.89512, -26.38525], [27.89644, -26.37787], [27.90465, -26.36527], [27.91223, -26.35895], [27.927255, -26.35628], [27.95339, -26.3532], [27.95686, -26.33516], [27.95887, -26.33597], [27.97034, -26.33711], [27.96998, -26.3417], [28.00901, -26.35058], [28.011389, -26.339163], [28.01841, -26.34167], [28.02123, -26.34203], [28.02954, -26.34162], [28.03961, -26.34244], [28.04314, -26.34718], [28.04193, -26.34751], [28.04783, -26.35958], [28.05034, -26.35597], [28.051068, -26.34908], [28.08115, -26.33571], [28.08721, -26.34398], [28.08733, -26.34499], [28.097516, -26.36031], [28.08883, -26.38185], [28.08626, -26.39063], [28.08464, -26.39293], [28.07775, -26.40914], [28.07606, -26.41537], [28.077455, -26.415541], [28.07718, -26.4173], [28.08594, -26.41695], [28.0898, -26.41792], [28.094341, -26.41745], [28.10156, -26.42022], [28.117909, -26.41907], [28.12567, -26.43067], [28.13723, -26.42552], [28.13473, -26.42291], [28.14723, -26.42393], [28.16029, -26.43803], [28.183014, -26.419235], [28.18431, -26.42509], [28.18294, -26.4284], [28.18106, -26.42918], [28.18684, -26.43033], [28.19597, -26.42922], [28.17812, -26.44375], [28.18769, -26.45312], [28.19285, -26.4475], [28.20874, -26.43402], [28.21518, -26.43578], [28.21705, -26.43342], [28.22046, -26.43563], [28.2204, -26.43628], [28.22345, -26.4324], [28.24378, -26.43435], [28.26375, -26.43504], [28.2711, -26.4137], [28.26461, -26.40881], [28.24418, -26.37657], [28.25095, -26.37277], [28.24857, -26.37055], [28.25973, -26.3672], [28.262147, -26.363525], [28.27401, -26.35868], [28.28633, -26.36742], [28.29361, -26.38431], [28.30905, -26.36793], [28.35493, -26.40696], [28.370295, -26.393631], [28.37366, -26.3945], [28.38272, -26.38569], [28.38505, -26.39002], [28.38132, -26.39431], [28.38684, -26.40392], [28.39408, -26.39771], [28.40174, -26.40053], [28.39982, -26.40219], [28.40666, -26.40883], [28.37178, -26.43544], [28.37559, -26.43952], [28.380829, -26.447204], [28.40707, -26.43041], [28.41472, -26.42281], [28.45152, -26.44125], [28.45313, -26.43948], [28.45581, -26.438595], [28.45748, -26.439185], [28.457665, -26.437645], [28.4634, -26.44304], [28.46362, -26.43814], [28.47142, -26.43986], [28.49908, -26.4393], [28.50002, -26.45321], [28.49703, -26.45298], [28.49724, -26.45662], [28.50026, -26.45683], [28.50077, -26.46437], [28.523141, -26.46558], [28.518191, -26.452852], [28.51723, -26.45311], [28.51635, -26.44791], [28.52428, -26.44466], [28.52213, -26.44266], [28.525733, -26.4408], [28.52332, -26.44041], [28.52086, -26.43905], [28.5196, -26.43752], [28.5195, -26.43822], [28.51726, -26.43578], [28.51618, -26.43574], [28.51428, -26.4324], [28.50945, -26.38392], [28.50775, -26.38052], [28.50874, -26.38017], [28.51538, -26.36404], [28.51788, -26.36196], [28.51736, -26.35809], [28.51522, -26.35699], [28.516665, -26.35389], [28.51425, -26.34655], [28.51902, -26.33898], [28.52497, -26.33235], [28.52248, -26.32856], [28.52279, -26.32622], [28.519596, -26.325139], [28.51817, -26.274233], [28.51363, -26.22143], [28.52715, -26.17874], [28.53429, -26.17224], [28.53054, -26.22531], [28.58197, -26.23729], [28.62229, -26.24838], [28.6269, -26.29244], [28.672797, -26.311688], [28.672728, -26.320913], [28.70863, -26.34043]]]]}}, {"type": "Feature", "properties": {"name": "West Rand District"}, "geometry": {"type": "MultiPolygon", "coordinates": [[[[27.64355, -25.79592], [27.6466, -25.81414], [27.64176, -25.81145], [27.6411, -25.8128], [27.64548, -25.81983], [27.64885, -25.83502], [27.64848, -25.83813], [27.64683, -25.83942], [27.64714, -25.84057], [27.64964, -25.842712], [27.65045, -25.84273], [27.64967, -25.84354], [27.65464, -25.84533], [27.65643, -25.84508], [27.6582, -25.84363], [27.65964, -25.84334], [27.66001, -25.84235], [27.66216, -25.84111], [27.66272, -25.83986], [27.66392, -25.83997], [27.66416, -25.84177], [27.68493, -25.8754], [27.70456, -25.8683], [27.7303, -25.85521], [27.7358, -25.85531], [27.7427, -25.85024], [27.74272, -25.86303], [27.74455, -25.89462], [27.79103, -25.87468], [27.83147, -25.860173], [27.84396, -25.8489], [27.8518, -25.84641], [27.84824, -25.83929], [27.85874, -25.81882], [27.86568, -25.81917], [27.88865, -25.82309], [27.89168, -25.82291], [27.89008, -25.82985], [27.88527, -25.83537], [27.88438, -25.83875], [27.88349, -25.8457], [27.88474, -25.85175], [27.8826, -25.86187], [27.8982, -25.85974], [27.89947, -25.88278], [27.89035, -25.88395], [27.893798, -25.905681], [27.90098, -25.90526], [27.90115, -25.90793], [27.92248, -25.91756], [27.93201, -25.91615], [27.94085, -25.92838], [27.93234, -25.92594], [27.90839, -25.92693], [27.90768, -25.92873], [27.90997, -25.92956], [27.90976, -25.9303], [27.90518, -25.93308], [27.90822, -25.94252], [27.90945, -25.94413], [27.89759, -25.95436], [27.91058, -25.96764], [27.90736, -25.97009], [27.91883, -25.97126], [27.92271, -25.9707], [27.9256, -25.97861], [27.92353, -25.99831], [27.91264, -26.02821], [27.90437, -26.03111], [27.89627, -26.06185], [27.877471, -26.071156], [27.875233, -26.067492], [27.870089, -26.07011], [27.864645, -26.056575], [27.85157, -26.05979], [27.84964, -26.06238], [27.86651, -26.07511], [27.86437, -26.07554], [27.842595, -26.071845], [27.84225, -26.0723], [27.84332, -26.07312], [27.84503, -26.07842], [27.84476, -26.08254], [27.84415, -26.08326], [27.83531, -26.08463], [27.839665, -26.092025], [27.83911, -26.09222], [27.83926, -26.09433], [27.83842, -26.09547], [27.83985, -26.09726], [27.83901, -26.09909], [27.84011, -26.10169], [27.839645, -26.10687], [27.83794, -26.10765], [27.83519, -26.10682], [27.83206, -26.10856], [27.83184, -26.10993], [27.83262, -26.11137], [27.83189, -26.11365], [27.83217, -26.11456], [27.839, -26.11685], [27.83786, -26.11991], [27.83881, -26.12022], [27.83738, -26.12449], [27.835744, -26.126031], [27.81304, -26.16656], [27.812245, -26.16695], [27.81815, -26.16993], [27.81974, -26.17299], [27.81955, -26.17437], [27.818047, -26.17596], [27.81352, -26.17606], [27.80906, -26.17506], [27.8106, -26.18208], [27.78614, -26.18195], [27.77199, -26.21321], [27.71827, -26.19893], [27.71776, -26.202857], [27.72029, -26.20386], [27.71958, -26.21067], [27.71851, -26.21389], [27.7157, -26.2143], [27.71427, -26.21387], [27.72495, -26.2387], [27.72853, -26.24249], [27.72915, -26.24629], [27.75348, -26.25804], [27.74465, -26.27949], [27.7438, -26.28722], [27.77651, -26.28533], [27.7828, -26.30435], [27.78972, -26.30391], [27.7923, -26.28747], [27.81368, -26.28565], [27.8138, -26.28477], [27.81484, -26.285], [27.81529, -26.30339], [27.82181, -26.30407], [27.82447, -26.33748], [27.81045, -26.33289], [27.81159, -26.364475], [27.751864, -26.361995], [27.754736, -26.38411], [27.76129, -26.41915], [27.74898, -26.41917], [27.74524, -26.43778], [27.73235, -26.43872], [27.72754, -26.43121], [27.71337, -26.4424], [27.70967, -26.45467], [27.71431, -26.48939], [27.71013, -26.53001], [27.67598, -26.52435], [27.67564, -26.52908], [27.67898, -26.53659], [27.67641, -26.53869], [27.67887, -26.56065], [27.669209, -26.602249], [27.66793, -26.61055], [27.65958, -26.6042], [27.65775, -26.61774], [27.62445, -26.60924], [27.5796, -26.60753], [27.569939, -26.622146], [27.575489, -26.623045], [27.56909, -26.64716], [27.50653, -26.64623], [27.45483, -26.63033], [27.43467, -26.63181], [27.425759, -26.649468], [27.42299, -26.64782], [27.37835, -26.61068], [27.38539, -26.60427], [27.36583, -26.57383], [27.33864, -26.57173], [27.33885, -26.57812], [27.3315, -26.59032], [27.34422, -26.61313], [27.299111, -26.622118], [27.29737, -26.62164], [27.29688, -26.62028], [27.2933, -26.6223], [27.28619, -26.62141], [27.28512, -26.62237], [27.28418, -26.62219], [27.28589, -26.62445], [27.28549, -26.62496], [27.28154, -26.62504], [27.27966, -26.62581], [27.27934, -26.62445], [27.27848, -26.6253], [27.27891, -26.62647], [27.27684, -26.62592], [27.27734, -26.62689], [27.27688, -26.629], [27.27448, -26.62985], [27.27464, -26.63085], [27.27307, -26.63218], [27.27227, -26.63152], [27.27282, -26.63088], [27.27176, -26.63039], [27.27001, -26.63222], [27.26826, -26.63287], [27.26734, -26.63236], [27.26772, -26.63117], [27.26714, -26.63056], [27.26569, -26.63249], [27.26444, -26.63167], [27.26168, -26.63354], [27.26049, -26.63149], [27.25738, -26.63082], [27.25753, -26.63201], [27.25369, -26.63248], [27.25216, -26.6338], [27.25079, -26.63392], [27.25125, -26.6347], [27.2497, -26.63495], [27.24938, -26.63406], [27.24885, -26.63605], [27.24781, -26.63603], [27.2482, -26.63476], [27.24743, -26.63437], [27.24446, -26.63502], [27.24187, -26.63646], [27.23502, -26.61862], [27.23321, -26.59546], [27.23452, -26.59492], [27.22836, -26.57105], [27.182637, -26.57462], [27.18256, -26.56313], [27.17455, -26.54921], [27.1671, -26.55143], [27.15876, -26.52542], [27.15634, -26.52431], [27.17857, -26.52098], [27.18825, -26.52582], [27.18283, -26.52033], [27.1986, -26.51799], [27.20258, -26.51662], [27.21247, -26.5148], [27.231421, -26.505481], [27.22378, -26.45177], [27.22459, -26.45161], [27.22485, -26.44397], [27.187952, -26.377863], [27.23481, -26.33827], [27.27481, -26.31425], [27.2993, -26.30448], [27.330071, -26.281815], [27.30839, -26.22518], [27.29141, -26.14462], [27.31056, -26.14791], [27.31051, -26.14726], [27.35826, -26.15461], [27.36172, -26.11567], [27.41944, -26.1175], [27.42236, -26.08917], [27.42522, -26.08939], [27.43135, -26.05226], [27.43521, -26.02695], [27.43527, -26.02511], [27.4338, -26.02486], [27.43399, -26.02251], [27.43569, -26.02257], [27.43886, -26.01426], [27.44981, -26.01625], [27.45701, -25.98185], [27.453566, -25.92016], [27.46334, -25.92147], [27.45704, -25.88829], [27.47, -25.8881], [27.461947, -25.867606], [27.48436, -25.86352], [27.49754, -25.85959], [27.50019, -25.86132], [27.51327, -25.86033], [27.53229, -25.84996], [27.53358, -25.85215], [27.54248, -25.85258], [27.5474, -25.8514], [27.54771, -25.85052], [27.54598, -25.84616], [27.55985, -25.84284], [27.57457, -25.83599], [27.59829, -25.81957], [27.5993, -25.81271], [27.60555, -25.80823], [27.64032, -25.79633], [27.64355, -25.79592]]]]}}]}